[{"OBJECT_NAME":"STARLINK-2453","OBJECT_ID":"2021-018BL","EPOCH":"2026-03-01T21:16:43.624128","MEAN_MOTION":15.06394096,"ECCENTRICITY":0.0001502,"INCLINATION":53.0541,"RA_OF_ASC_NODE":286.6469,"ARG_OF_PERICENTER":89.033,"MEAN_ANOMALY":271.0831,"EPHEMERIS_TYPE":0,"CLASSIFICATION_TYPE":"U","NORAD_CAT_ID":47845,"ELEMENT_SET_NO":999,"REV_AT_EPOCH":27542,"BSTAR":4.5018e-5,"MEAN_MOTION_DOT":3.89e-6,"MEAN_MOTION_DDOT":0},{"OBJECT_NAME":"STARLINK-2280","OBJECT_ID":"2021-021B","EPOCH":"2026-03-01T22:28:51.915072","MEAN_MOTION":15.29368252,"ECCENTRICITY":0.0001171,"INCLINATION":53.1571,"RA_OF_ASC_NODE":293.9093,"ARG_OF_PERICENTER":92.2646,"MEAN_ANOMALY":267.8488,"EPHEMERIS_TYPE":0,"CLASSIFICATION_TYPE":"U","NORAD_CAT_ID":47861,"ELEMENT_SET_NO":999,"REV_AT_EPOCH":27521,"BSTAR":0.00020618,"MEAN_MOTION_DOT":5.6e-5,"MEAN_MOTION_DDOT":0},{"OBJECT_NAME":"STARLINK-2291","OBJECT_ID":"2021-021C","EPOCH":"2026-03-02T00:36:12.698208","MEAN_MOTION":15.30170874,"ECCENTRICITY":0.0001358,"INCLINATION":53.1598,"RA_OF_ASC_NODE":290.8654,"ARG_OF_PERICENTER":89.2735,"MEAN_ANOMALY":270.8422,"EPHEMERIS_TYPE":0,"CLASSIFICATION_TYPE":"U","NORAD_CAT_ID":47862,"ELEMENT_SET_NO":999,"REV_AT_EPOCH":27525,"BSTAR":0.00012916,"MEAN_MOTION_DOT":3.465e-5,"MEAN_MOTION_DDOT":0},{"OBJECT_NAME":"STARLINK-2326","OBJECT_ID":"2021-021L","EPOCH":"2026-03-02T02:34:37.371936","MEAN_MOTION":15.30185074,"ECCENTRICITY":0.0001451,"INCLINATION":53.1602,"RA_OF_ASC_NODE":316.2025,"ARG_OF_PERICENTER":76.2521,"MEAN_ANOMALY":283.8641,"EPHEMERIS_TYPE":0,"CLASSIFICATION_TYPE":"U","NORAD_CAT_ID":47870,"ELEMENT_SET_NO":999,"REV_AT_EPOCH":27480,"BSTAR":6.4269e-5,"MEAN_MOTION_DOT":1.544e-5,"MEAN_MOTION_DDOT":0},{"OBJECT_NAME":"STARLINK-2329","OBJECT_ID":"2021-021P","EPOCH":"2026-03-01T22:48:32.103648","MEAN_MOTION":15.30190279,"ECCENTRICITY":0.0001379,"INCLINATION":53.1584,"RA_OF_ASC_NODE":291.4092,"ARG_OF_PERICENTER":70.1335,"MEAN_ANOMALY":289.9814,"EPHEMERIS_TYPE":0,"CLASSIFICATION_TYPE":"U","NORAD_CAT_ID":47873,"ELEMENT_SET_NO":999,"REV_AT_EPOCH":27523,"BSTAR":-4.9302e-5,"MEAN_MOTION_DOT":-1.819e-5,"MEAN_MOTION_DDOT":0},{"OBJECT_NAME":"STARLINK-2330","OBJECT_ID":"2021-021Q","EPOCH":"2026-03-02T04:00:01.999584","MEAN_MOTION":15.09129738,"ECCENTRICITY":0.0002598,"INCLINATION":53.0631,"RA_OF_ASC_NODE":250.3858,"ARG_OF_PERICENTER":94.9607,"MEAN_ANOMALY":104.9458,"EPHEMERIS_TYPE":0,"CLASSIFICATION_TYPE":"U","NORAD_CAT_ID":47874,"ELEMENT_SET_NO":999,"REV_AT_EPOCH":567,"BSTAR":0.00074643,"MEAN_MOTION_DOT":0.00011706,"MEAN_MOTION_DDOT":0},{"OBJECT_NAME":"STARLINK-2336","OBJECT_ID":"2021-021V","EPOCH":"2026-03-02T03:18:36.211104","MEAN_MOTION":15.30255184,"ECCENTRICITY":0.0001068,"INCLINATION":53.1583,"RA_OF_ASC_NODE":316.0767,"ARG_OF_PERICENTER":103.1606,"MEAN_ANOMALY":256.9514,"EPHEMERIS_TYPE":0,"CLASSIFICATION_TYPE":"U","NORAD_CAT_ID":47879,"ELEMENT_SET_NO":999,"REV_AT_EPOCH":27508,"BSTAR":0.00080298,"MEAN_MOTION_DOT":0.00023539,"MEAN_MOTION_DDOT":0},{"OBJECT_NAME":"STARLINK-2342","OBJECT_ID":"2021-021Z","EPOCH":"2026-03-02T01:22:31.501920","MEAN_MOTION":15.30191055,"ECCENTRICITY":9.89e-5,"INCLINATION":53.1599,"RA_OF_ASC_NODE":303.579,"ARG_OF_PERICENTER":82.3508,"MEAN_ANOMALY":277.7605,"EPHEMERIS_TYPE":0,"CLASSIFICATION_TYPE":"U","NORAD_CAT_ID":47883,"ELEMENT_SET_NO":999,"REV_AT_EPOCH":27525,"BSTAR":0.00021107,"MEAN_MOTION_DOT":5.895e-5,"MEAN_MOTION_DDOT":0},{"OBJECT_NAME":"STARLINK-2343","OBJECT_ID":"2021-021AA","EPOCH":"2026-03-02T04:00:01.999584","MEAN_MOTION":15.13632162,"ECCENTRICITY":0.000105,"INCLINATION":53.0846,"RA_OF_ASC_NODE":315.2866,"ARG_OF_PERICENTER":106.708,"MEAN_ANOMALY":206.6348,"EPHEMERIS_TYPE":0,"CLASSIFICATION_TYPE":"U","NORAD_CAT_ID":47884,"ELEMENT_SET_NO":999,"REV_AT_EPOCH":572,"BSTAR":0.071136,"MEAN_MOTION_DOT":0.01411767,"MEAN_MOTION_DDOT":0},{"OBJECT_NAME":"STARLINK-2346","OBJECT_ID":"2021-021AD","EPOCH":"2026-03-02T04:00:01.999584","MEAN_MOTION":15.14833809,"ECCENTRICITY":0.0001681,"INCLINATION":53.0875,"RA_OF_ASC_NODE":315.2125,"ARG_OF_PERICENTER":113.9683,"MEAN_ANOMALY":140.8252,"EPHEMERIS_TYPE":0,"CLASSIFICATION_TYPE":"U","NORAD_CAT_ID":47887,"ELEMENT_SET_NO":999,"REV_AT_EPOCH":582,"BSTAR":0.0065357,"MEAN_MOTION_DOT":0.00124746,"MEAN_MOTION_DDOT":0},{"OBJECT_NAME":"STARLINK-2354","OBJECT_ID":"2021-021AL","EPOCH":"2026-03-02T00:46:37.918848","MEAN_MOTION":15.29498154,"ECCENTRICITY":0.0001499,"INCLINATION":53.1527,"RA_OF_ASC_NODE":303.6726,"ARG_OF_PERICENTER":102.4175,"MEAN_ANOMALY":257.6993,"EPHEMERIS_TYPE":0,"CLASSIFICATION_TYPE":"U","NORAD_CAT_ID":47894,"ELEMENT_SET_NO":999,"REV_AT_EPOCH":27501,"BSTAR":0.00053909,"MEAN_MOTION_DOT":0.000153,"MEAN_MOTION_DDOT":0},{"OBJECT_NAME":"STARLINK-2355","OBJECT_ID":"2021-021AM","EPOCH":"2026-03-02T01:08:51.741312","MEAN_MOTION":15.30216912,"ECCENTRICITY":0.0001583,"INCLINATION":53.1584,"RA_OF_ASC_NODE":303.6469,"ARG_OF_PERICENTER":74.481,"MEAN_ANOMALY":285.6366,"EPHEMERIS_TYPE":0,"CLASSIFICATION_TYPE":"U","NORAD_CAT_ID":47895,"ELEMENT_SET_NO":999,"REV_AT_EPOCH":27505,"BSTAR":0.00015979,"MEAN_MOTION_DOT":4.379e-5,"MEAN_MOTION_DDOT":0},{"OBJECT_NAME":"STARLINK-2356","OBJECT_ID":"2021-021AN","EPOCH":"2026-03-02T00:30:13.946400","MEAN_MOTION":15.30189073,"ECCENTRICITY":0.000108,"INCLINATION":53.1599,"RA_OF_ASC_NODE":316.6123,"ARG_OF_PERICENTER":90.7449,"MEAN_ANOMALY":269.3675,"EPHEMERIS_TYPE":0,"CLASSIFICATION_TYPE":"U","NORAD_CAT_ID":47896,"ELEMENT_SET_NO":999,"REV_AT_EPOCH":27484,"BSTAR":3.6987e-5,"MEAN_MOTION_DOT":7.36e-6,"MEAN_MOTION_DDOT":0},{"OBJECT_NAME":"STARLINK-2358","OBJECT_ID":"2021-021AQ","EPOCH":"2026-03-01T21:43:42.860352","MEAN_MOTION":15.29396808,"ECCENTRICITY":0.0001169,"INCLINATION":53.1546,"RA_OF_ASC_NODE":304.2626,"ARG_OF_PERICENTER":69.777,"MEAN_ANOMALY":290.3356,"EPHEMERIS_TYPE":0,"CLASSIFICATION_TYPE":"U","NORAD_CAT_ID":47898,"ELEMENT_SET_NO":999,"REV_AT_EPOCH":27500,"BSTAR":0.0004278,"MEAN_MOTION_DOT":0.00012024,"MEAN_MOTION_DDOT":0},{"OBJECT_NAME":"STARLINK-2361","OBJECT_ID":"2021-021AT","EPOCH":"2026-03-01T22:31:49.334016","MEAN_MOTION":15.30206932,"ECCENTRICITY":0.0001268,"INCLINATION":53.1565,"RA_OF_ASC_NODE":291.3972,"ARG_OF_PERICENTER":94.0656,"MEAN_ANOMALY":266.049,"EPHEMERIS_TYPE":0,"CLASSIFICATION_TYPE":"U","NORAD_CAT_ID":47901,"ELEMENT_SET_NO":999,"REV_AT_EPOCH":27523,"BSTAR":0.00023997,"MEAN_MOTION_DOT":6.756e-5,"MEAN_MOTION_DDOT":0},{"OBJECT_NAME":"STARLINK-2363","OBJECT_ID":"2021-021AV","EPOCH":"2026-03-02T04:00:01.999584","MEAN_MOTION":15.5568675,"ECCENTRICITY":0.0001154,"INCLINATION":53.1587,"RA_OF_ASC_NODE":288.9212,"ARG_OF_PERICENTER":106.4139,"MEAN_ANOMALY":344.7193,"EPHEMERIS_TYPE":0,"CLASSIFICATION_TYPE":"U","NORAD_CAT_ID":47903,"ELEMENT_SET_NO":999,"REV_AT_EPOCH":582,"BSTAR":0.015265,"MEAN_MOTION_DOT":0.01170163,"MEAN_MOTION_DDOT":0},{"OBJECT_NAME":"STARLINK-2364","OBJECT_ID":"2021-021AW","EPOCH":"2026-03-02T00:08:53.186496","MEAN_MOTION":15.30201502,"ECCENTRICITY":0.0001414,"INCLINATION":53.1581,"RA_OF_ASC_NODE":290.9808,"ARG_OF_PERICENTER":79.1709,"MEAN_ANOMALY":280.9451,"EPHEMERIS_TYPE":0,"CLASSIFICATION_TYPE":"U","NORAD_CAT_ID":47904,"ELEMENT_SET_NO":999,"REV_AT_EPOCH":27523,"BSTAR":0.00016,"MEAN_MOTION_DOT":4.382e-5,"MEAN_MOTION_DDOT":0}]
