STARLINK-2453           
1 47845U 21018BL  26060.88661602  .00000389  00000+0  45018-4 0  9992
2 47845  53.0541 286.6469 0001502  89.0330 271.0831 15.06394096275425
STARLINK-2280           
1 47861U 21021B   26060.93671198  .00005600  00000+0  20618-3 0  9990
2 47861  53.1571 293.9093 0001171  92.2646 267.8488 15.29368252275217
STARLINK-2291           
1 47862U 21021C   26061.02514697  .00003465  00000+0  12916-3 0  9991
2 47862  53.1598 290.8654 0001358  89.2735 270.8422 15.30170874275257
STARLINK-2326           
1 47870U 21021L   26061.10737699  .00001544  00000+0  64269-4 0  9993
2 47870  53.1602 316.2025 0001451  76.2521 283.8641 15.30185074274805
STARLINK-2329           
1 47873U 21021P   26060.95037157 -.00001819  00000+0 -49302-4 0  9998
2 47873  53.1584 291.4092 0001379  70.1335 289.9814 15.30190279275230
STARLINK-2330           
1 47874U 21021Q   26061.16668981  .00011706  00000+0  74643-3 0  9997
2 47874  53.0631 250.3858 0002598  94.9607 104.9458 15.09129738  5674
STARLINK-2336           
1 47879U 21021V   26061.13791911  .00023539  00000+0  80298-3 0  9999
2 47879  53.1583 316.0767 0001068 103.1606 256.9514 15.30255184275082
STARLINK-2342           
1 47883U 21021Z   26061.05730905  .00005895  00000+0  21107-3 0  9990
2 47883  53.1599 303.5790 0000989  82.3508 277.7605 15.30191055275258
STARLINK-2343           
1 47884U 21021AA  26061.16668981  .01411767  00000+0  71136-1 0  9992
2 47884  53.0846 315.2866 0001050 106.7080 206.6348 15.13632162  5721
STARLINK-2346           
1 47887U 21021AD  26061.16668981  .00124746  00000+0  65357-2 0  9991
2 47887  53.0875 315.2125 0001681 113.9683 140.8252 15.14833809  5829
STARLINK-2354           
1 47894U 21021AL  26061.03238332  .00015300  00000+0  53909-3 0  9994
2 47894  53.1527 303.6726 0001499 102.4175 257.6993 15.29498154275011
STARLINK-2355           
1 47895U 21021AM  26061.04782108  .00004379  00000+0  15979-3 0  9990
2 47895  53.1584 303.6469 0001583  74.4810 285.6366 15.30216912275058
STARLINK-2356           
1 47896U 21021AN  26061.02099475  .00000736  00000+0  36987-4 0  9993
2 47896  53.1599 316.6123 0001080  90.7449 269.3675 15.30189073274842
STARLINK-2358           
1 47898U 21021AQ  26060.90535718  .00012024  00000+0  42780-3 0  9996
2 47898  53.1546 304.2626 0001169  69.7770 290.3356 15.29396808275001
STARLINK-2361           
1 47901U 21021AT  26060.93876544  .00006756  00000+0  23997-3 0  9993
2 47901  53.1565 291.3972 0001268  94.0656 266.0490 15.30206932275235
STARLINK-2363           
1 47903U 21021AV  26061.16668981  .01170163  00000+0  15265-1 0  9997
2 47903  53.1587 288.9212 0001154 106.4139 344.7193 15.55686750  5825
STARLINK-2364           
1 47904U 21021AW  26061.00617114  .00004382  00000+0  16000-3 0  9991
2 47904  53.1581 290.9808 0001414  79.1709 280.9451 15.30201502275235
